{"type": "FeatureCollection", "features": [ {"type": "Feature", "properties": {"norad_id": 34031, "name": "COSMOS 2251 DEB", "group": "cosmos-2251-debris", "lat": -69.26545191372739, "lon": 3.1048748339923513, "alt_km": 684.8229146330923, "timestamp": "2025-12-13T16:48:33.103465+00:00", "meta": {"OBJECT_NAME": "COSMOS 2251 DEB", "OBJECT_ID": "1993-036HS", "EPOCH": "2025-12-12T10:10:16.861728", "MEAN_MOTION": 14.59681802, "ECCENTRICITY": 0.00229554, "INCLINATION": 74.0124, "RA_OF_ASC_NODE": 136.311, "ARG_OF_PERICENTER": 256.5815, "MEAN_ANOMALY": 134.4779, "EPHEMERIS_TYPE": 0, "CLASSIFICATION_TYPE": "U", "NORAD_CAT_ID": 34031, "ELEMENT_SET_NO": 999, "REV_AT_EPOCH": 88561, "BSTAR": 0.002061511, "MEAN_MOTION_DOT": 9.845e-05, "MEAN_MOTION_DDOT": 0}, "tle": {"line1": "1 34031U 93036HS  25346.42380627  .00009845  00000+0  20615-2 0  9995", "line2": "2 34031  74.0124 136.3110 0022955 256.5815 134.4779 14.59681802885618"}}, "geometry": {"type": "Point", "coordinates": [3.1048748339923513, -69.26545191372739]}}, {"type": "Feature", "properties": {"norad_id": 34035, "name": "COSMOS 2251 DEB", "group": "cosmos-2251-debris", "lat": 31.712385478070868, "lon": -2.4979786628291913, "alt_km": 694.4902717346149, "timestamp": "2025-12-13T16:48:33.103475+00:00", "meta": {"OBJECT_NAME": "COSMOS 2251 DEB", "OBJECT_ID": "1993-036HW", "EPOCH": "2025-12-12T03:09:11.696832", "MEAN_MOTION": 14.51928627, "ECCENTRICITY": 0.00446689, "INCLINATION": 74.0661, "RA_OF_ASC_NODE": 350.2834, "ARG_OF_PERICENTER": 351.8965, "MEAN_ANOMALY": 123.1783, "EPHEMERIS_TYPE": 0, "CLASSIFICATION_TYPE": "U", "NORAD_CAT_ID": 34035, "ELEMENT_SET_NO": 999, "REV_AT_EPOCH": 87957, "BSTAR": 0.0025029789, "MEAN_MOTION_DOT": 0.00010215, "MEAN_MOTION_DDOT": 0}, "tle": {"line1": "1 34035U 93036HW  25346.13138538  .00010215  00000+0  25030-2 0  9998", "line2": "2 34035  74.0661 350.2834 0044668 351.8965 123.1783 14.51928627879577"}}, "geometry": {"type": "Point", "coordinates": [-2.4979786628291913, 31.712385478070868]}}, {"type": "Feature", "properties": {"norad_id": 34036, "name": "COSMOS 2251 DEB", "group": "cosmos-2251-debris", "lat": 71.8733424069812, "lon": -151.58477528448165, "alt_km": 576.1389354232215, "timestamp": "2025-12-13T16:48:33.103485+00:00", "meta": {"OBJECT_NAME": "COSMOS 2251 DEB", "OBJECT_ID": "1993-036HX", "EPOCH": "2025-12-12T21:10:27.192288", "MEAN_MOTION": 14.94992159, "ECCENTRICITY": 0.00123596, "INCLINATION": 74.0201, "RA_OF_ASC_NODE": 148.9789, "ARG_OF_PERICENTER": 182.0017, "MEAN_ANOMALY": 178.112, "EPHEMERIS_TYPE": 0, "CLASSIFICATION_TYPE": "U", "NORAD_CAT_ID": 34036, "ELEMENT_SET_NO": 999, "REV_AT_EPOCH": 88572, "BSTAR": 0.0051915963, "MEAN_MOTION_DOT": 0.00057287, "MEAN_MOTION_DDOT": 0}, "tle": {"line1": "1 34036U 93036HX  25346.88225917  .00057287  00000+0  51916-2 0  9991", "line2": "2 34036  74.0201 148.9789 0012359 182.0017 178.1120 14.94992159885720"}}, "geometry": {"type": "Point", "coordinates": [-151.58477528448165, 71.8733424069812]}}, {"type": "Feature", "properties": {"norad_id": 34037, "name": "COSMOS 2251 DEB", "group": "cosmos-2251-debris", "lat": -62.703392093845274, "lon": 15.037359732715434, "alt_km": 819.0569975990302, "timestamp": "2025-12-13T16:48:33.103495+00:00", "meta": {"OBJECT_NAME": "COSMOS 2251 DEB", "OBJECT_ID": "1993-036HY", "EPOCH": "2025-12-12T21:02:35.559744", "MEAN_MOTION": 14.34666632, "ECCENTRICITY": 0.00519656, "INCLINATION": 74.0523, "RA_OF_ASC_NODE": 50.1916, "ARG_OF_PERICENTER": 100.1547, "MEAN_ANOMALY": 260.5472, "EPHEMERIS_TYPE": 0, "CLASSIFICATION_TYPE": "U", "NORAD_CAT_ID": 34037, "ELEMENT_SET_NO": 999, "REV_AT_EPOCH": 87719, "BSTAR": 0.00071595016, "MEAN_MOTION_DOT": 2.032e-05, "MEAN_MOTION_DDOT": 0}, "tle": {"line1": "1 34037U 93036HY  25346.87680046  .00002032  00000+0  71595-3 0  9993", "line2": "2 34037  74.0523  50.1916 0051965 100.1547 260.5472 14.34666632877195"}}, "geometry": {"type": "Point", "coordinates": [15.037359732715434, -62.703392093845274]}}, {"type": "Feature", "properties": {"norad_id": 34040, "name": "COSMOS 2251 DEB", "group": "cosmos-2251-debris", "lat": -47.56192811213504, "lon": 45.933122363823884, "alt_km": 907.749574716102, "timestamp": "2025-12-13T16:48:33.103505+00:00", "meta": {"OBJECT_NAME": "COSMOS 2251 DEB", "OBJECT_ID": "1993-036JB", "EPOCH": "2025-12-12T23:29:48.158304", "MEAN_MOTION": 13.68374888, "ECCENTRICITY": 0.03430457, "INCLINATION": 73.9559, "RA_OF_ASC_NODE": 65.4679, "ARG_OF_PERICENTER": 18.7871, "MEAN_ANOMALY": 342.5546, "EPHEMERIS_TYPE": 0, "CLASSIFICATION_TYPE": "U", "NORAD_CAT_ID": 34040, "ELEMENT_SET_NO": 999, "REV_AT_EPOCH": 83603, "BSTAR": 0.00060931569, "MEAN_MOTION_DOT": 7.63e-06, "MEAN_MOTION_DDOT": 0}, "tle": {"line1": "1 34040U 93036JB  25346.97902961  .00000763  00000+0  60932-3 0  9993", "line2": "2 34040  73.9559  65.4679 0343045  18.7871 342.5546 13.68374888836034"}}, "geometry": {"type": "Point", "coordinates": [45.933122363823884, -47.56192811213504]}}, {"type": "Feature", "properties": {"norad_id": 34045, "name": "COSMOS 2251 DEB", "group": "cosmos-2251-debris", "lat": -24.13379270941893, "lon": -58.292556278007, "alt_km": 773.3672021319062, "timestamp": "2025-12-13T16:48:33.103515+00:00", "meta": {"OBJECT_NAME": "COSMOS 2251 DEB", "OBJECT_ID": "1993-036JG", "EPOCH": "2025-12-12T22:46:01.538688", "MEAN_MOTION": 14.34068999, "ECCENTRICITY": 0.00256656, "INCLINATION": 74.0392, "RA_OF_ASC_NODE": 310.4492, "ARG_OF_PERICENTER": 33.835, "MEAN_ANOMALY": 21.8672, "EPHEMERIS_TYPE": 0, "CLASSIFICATION_TYPE": "U", "NORAD_CAT_ID": 34045, "ELEMENT_SET_NO": 999, "REV_AT_EPOCH": 88036, "BSTAR": 0.00015289557, "MEAN_MOTION_DOT": 4.03e-06, "MEAN_MOTION_DDOT": 0}, "tle": {"line1": "1 34045U 93036JG  25346.94862892  .00000403  00000+0  15290-3 0  9991", "line2": "2 34045  74.0392 310.4492 0025665  33.8350  21.8672 14.34068999880366"}}, "geometry": {"type": "Point", "coordinates": [-58.292556278007, -24.13379270941893]}}, {"type": "Feature", "properties": {"norad_id": 34046, "name": "COSMOS 2251 DEB", "group": "cosmos-2251-debris", "lat": 5.704486955270905, "lon": 10.31824765736983, "alt_km": 734.7484351725925, "timestamp": "2025-12-13T16:48:33.103525+00:00", "meta": {"OBJECT_NAME": "COSMOS 2251 DEB", "OBJECT_ID": "1993-036JH", "EPOCH": "2025-12-12T20:01:17.831424", "MEAN_MOTION": 14.46474298, "ECCENTRICITY": 0.0074505, "INCLINATION": 74.0403, "RA_OF_ASC_NODE": 10.2965, "ARG_OF_PERICENTER": 93.7041, "MEAN_ANOMALY": 84.7064, "EPHEMERIS_TYPE": 0, "CLASSIFICATION_TYPE": "U", "NORAD_CAT_ID": 34046, "ELEMENT_SET_NO": 999, "REV_AT_EPOCH": 87827, "BSTAR": 0.0017041918, "MEAN_MOTION_DOT": 6.325e-05, "MEAN_MOTION_DDOT": 0}, "tle": {"line1": "1 34046U 93036JH  25346.83423416  .00006325  00000+0  17042-2 0  9990", "line2": "2 34046  74.0403  10.2965 0074505  93.7041  84.7064 14.46474298878275"}}, "geometry": {"type": "Point", "coordinates": [10.31824765736983, 5.704486955270905]}}, {"type": "Feature", "properties": {"norad_id": 34050, "name": "COSMOS 2251 DEB", "group": "cosmos-2251-debris", "lat": 63.878046051204834, "lon": 43.97670751532609, "alt_km": 744.3945465320558, "timestamp": "2025-12-13T16:48:33.103535+00:00", "meta": {"OBJECT_NAME": "COSMOS 2251 DEB", "OBJECT_ID": "1993-036JM", "EPOCH": "2025-12-12T09:49:43.079232", "MEAN_MOTION": 13.96180826, "ECCENTRICITY": 0.0214555, "INCLINATION": 74.0883, "RA_OF_ASC_NODE": 10.6188, "ARG_OF_PERICENTER": 75.0219, "MEAN_ANOMALY": 348.5229, "EPHEMERIS_TYPE": 0, "CLASSIFICATION_TYPE": "U", "NORAD_CAT_ID": 34050, "ELEMENT_SET_NO": 999, "REV_AT_EPOCH": 85427, "BSTAR": 0.0007954815, "MEAN_MOTION_DOT": 1.305e-05, "MEAN_MOTION_DDOT": 0}, "tle": {"line1": "1 34050U 93036JM  25346.40952638  .00001305  00000+0  79548-3 0  9994", "line2": "2 34050  74.0883  10.6188 0214555  75.0219 348.5229 13.96180826854277"}}, "geometry": {"type": "Point", "coordinates": [43.97670751532609, 63.878046051204834]}}, {"type": "Feature", "properties": {"norad_id": 34053, "name": "COSMOS 2251 DEB", "group": "cosmos-2251-debris", "lat": -53.843300230506685, "lon": 83.99455412590534, "alt_km": 1356.4537211546422, "timestamp": "2025-12-13T16:48:33.103545+00:00", "meta": {"OBJECT_NAME": "COSMOS 2251 DEB", "OBJECT_ID": "1993-036JQ", "EPOCH": "2025-12-12T18:17:00.097152", "MEAN_MOTION": 13.49161453, "ECCENTRICITY": 0.04222221, "INCLINATION": 73.8441, "RA_OF_ASC_NODE": 242.1358, "ARG_OF_PERICENTER": 30.6806, "MEAN_ANOMALY": 331.8265, "EPHEMERIS_TYPE": 0, "CLASSIFICATION_TYPE": "U", "NORAD_CAT_ID": 34053, "ELEMENT_SET_NO": 999, "REV_AT_EPOCH": 82684, "BSTAR": 0.0010707402, "MEAN_MOTION_DOT": 1.146e-05, "MEAN_MOTION_DDOT": 0}, "tle": {"line1": "1 34053U 93036JQ  25346.76180668  .00001146  00000+0  10707-2 0  9996", "line2": "2 34053  73.8441 242.1358 0422222  30.6806 331.8265 13.49161453826849"}}, "geometry": {"type": "Point", "coordinates": [83.99455412590534, -53.843300230506685]}}, {"type": "Feature", "properties": {"norad_id": 34056, "name": "COSMOS 2251 DEB", "group": "cosmos-2251-debris", "lat": -57.152608316059904, "lon": 48.38505796818371, "alt_km": 919.4480785749502, "timestamp": "2025-12-13T16:48:33.103555+00:00", "meta": {"OBJECT_NAME": "COSMOS 2251 DEB", "OBJECT_ID": "1993-036JT", "EPOCH": "2025-12-12T16:26:46.592736", "MEAN_MOTION": 14.2055675, "ECCENTRICITY": 0.01241397, "INCLINATION": 74.0594, "RA_OF_ASC_NODE": 76.4744, "ARG_OF_PERICENTER": 124.3268, "MEAN_ANOMALY": 25.4697, "EPHEMERIS_TYPE": 0, "CLASSIFICATION_TYPE": "U", "NORAD_CAT_ID": 34056, "ELEMENT_SET_NO": 999, "REV_AT_EPOCH": 86410, "BSTAR": 0.0015376056, "MEAN_MOTION_DOT": 3.549e-05, "MEAN_MOTION_DDOT": 0}, "tle": {"line1": "1 34056U 93036JT  25346.68526149  .00003549  00000+0  15376-2 0  9994", "line2": "2 34056  74.0594  76.4744 0124139 124.3268  25.4697 14.20556750864104"}}, "geometry": {"type": "Point", "coordinates": [48.38505796818371, -57.152608316059904]}}]}